NORAD_CAT_ID,OBJECT_NAME,OBJECT_TYPE,EPOCH,MEAN_MOTION,ECCENTRICITY,INCLINATION,RA_OF_ASC_NODE,ARG_OF_PERICENTER,MEAN_ANOMALY,BSTAR,MEAN_MOTION_DOT,MEAN_MOTION_DDOT,TLE_LINE0,TLE_LINE1,TLE_LINE2,SEMIMAJOR_AXIS,PERIOD,APOGEE,PERIGEE,DECAYED
54809.0,STARLINK-5414,PAYLOAD,2024-05-12 10:22:41,15.08833196,0.0001346,53.2156,139.617,102.185,257.9293,-8.3082e-05,-1.61e-05,0.0,0 STARLINK-5414,1 54809U 22175BD  24133.43242878 -.00001610  00000-0 -83082-4 0  9999,2 54809  53.2156 139.6170 0001346 102.1850 257.9293 15.08833196 77395,6917.901,95.438,540.697,538.835,0.0
54809.0,STARLINK-5414,PAYLOAD,2024-05-13 03:51:57,15.08821247,0.0001324,53.2152,136.3457,103.3259,256.7881,-0.00019794,-3.435e-05,0.0,0 STARLINK-5414,1 54809U 22175BD  24134.16107984 -.00003435  00000-0 -19794-3 0  9993,2 54809  53.2152 136.3457 0001324 103.3259 256.7881 15.08821247 77502,6917.938,95.439,540.719,538.887,0.0
54809.0,STARLINK-5414,PAYLOAD,2024-05-13 07:02:43,15.088287,0.000137,53.2153,135.7515,105.9397,254.1746,-0.00019648,-3.413e-05,0.0,0 STARLINK-5414,1 54809U 22175BD  24134.29355976 -.00003413  00000-0 -19648-3 0  9997,2 54809  53.2153 135.7515 0001370 105.9397 254.1746 15.08828700 79687,6917.915,95.438,540.728,538.832,0.0
54809.0,STARLINK-5414,PAYLOAD,2024-05-13 16:35:02,15.0882973,0.0001422,53.2156,133.9673,113.8545,246.2597,-0.00010402,-1.943e-05,0.0,0 STARLINK-5414,1 54809U 22175BD  24134.69100178 -.00001943  00000-0 -10402-3 0  9998,2 54809  53.2156 133.9673 0001422 113.8545 246.2597 15.08829730 77583,6917.912,95.438,540.761,538.793,0.0
54809.0,STARLINK-5414,PAYLOAD,2024-05-14 06:53:31,15.08826784,0.0001319,53.216,131.291,107.1143,252.9993,0.00017682,2.526e-05,0.0,0 STARLINK-5414,1 54809U 22175BD  24135.28716762  .00002526  00000-0  17682-3 0  9999,2 54809  53.2160 131.2910 0001319 107.1143 252.9993 15.08826784 79838,6917.921,95.438,540.698,538.873,0.0
54809.0,STARLINK-5414,PAYLOAD,2024-05-14 16:25:50,15.08831432,0.0001308,53.2161,129.5066,105.937,254.1767,0.0002158,3.147e-05,0.0,0 STARLINK-5414,1 54809U 22175BD  24135.68460809  .00003147  00000-0  21580-3 0  9993,2 54809  53.2161 129.5066 0001308 105.9370 254.1767 15.08831432 79892,6917.907,95.438,540.676,538.867,0.0
54809.0,STARLINK-5414,PAYLOAD,2024-05-15 05:08:55,15.08840315,0.0001285,53.216,127.1278,107.7457,252.3675,0.00027755,4.132e-05,0.0,0 STARLINK-5414,1 54809U 22175BD  24136.21452640  .00004132  00000-0  27755-3 0  9992,2 54809  53.2160 127.1278 0001285 107.7457 252.3675 15.08840315 77818,6917.879,95.438,540.633,538.855,0.0
54809.0,STARLINK-5414,PAYLOAD,2024-05-15 08:19:41,15.08847996,0.0001327,53.2155,126.5334,106.5258,253.588,0.00034818,5.259e-05,0.0,0 STARLINK-5414,1 54809U 22175BD  24136.34700415  .00005259  00000-0  34818-3 0  9991,2 54809  53.2155 126.5334 0001327 106.5258 253.5880 15.08847996 79995,6917.856,95.437,540.639,538.803,0.0
54809.0,STARLINK-5414,PAYLOAD,2024-05-16 08:10:27,15.08855242,0.0001302,53.2152,122.0726,102.9635,257.1502,0.00026623,3.953e-05,0.0,0 STARLINK-5414,1 54809U 22175BD  24137.34059744  .00003953  00000-0  26623-3 0  9998,2 54809  53.2152 122.0726 0001302 102.9635 257.1502 15.08855242 77981,6917.834,95.437,540.6,538.798,0.0
54809.0,STARLINK-5414,PAYLOAD,2024-05-16 22:28:55,15.08854394,0.0001435,53.2157,119.3982,91.1261,268.9895,0.00015942,2.251e-05,0.0,0 STARLINK-5414,1 54809U 22175BD  24137.93675444  .00002251  00000-0  15942-3 0  9996,2 54809  53.2157 119.3982 0001435  91.1261 268.9895 15.08854394 80234,6917.836,95.437,540.694,538.709,0.0
54809.0,STARLINK-5414,PAYLOAD,2024-05-17 04:50:27,15.08854476,0.0001419,53.2152,118.2068,108.9556,251.159,0.0001395,1.934e-05,0.0,0 STARLINK-5414,1 54809U 22175BD  24138.20171129  .00001934  00000-0  13950-3 0  9992,2 54809  53.2152 118.2068 0001419 108.9556 251.1590 15.08854476 78119,6917.836,95.437,540.683,538.72,0.0
54809.0,STARLINK-5414,PAYLOAD,2024-05-17 06:25:50,15.08856767,0.0001393,53.2153,117.9102,92.59,267.5251,0.00018084,2.593e-05,0.0,0 STARLINK-5414,1 54809U 22175BD  24138.26795045  .00002593  00000-0  18084-3 0  9992,2 54809  53.2153 117.9102 0001393  92.5900 267.5251 15.08856767 80288,6917.829,95.436,540.658,538.73,0.0
54809.0,STARLINK-5414,PAYLOAD,2024-05-17 15:58:10,15.08842461,0.0001552,53.2158,116.1253,87.4825,272.6345,-4.9693e-05,-1.079e-05,0.0,0 STARLINK-5414,1 54809U 22175BD  24138.66539531 -.00001079  00000-0 -49693-4 0  9993,2 54809  53.2158 116.1253 0001552  87.4825 272.6345 15.08842461 78180,6917.873,95.437,540.812,538.664,0.0
54809.0,STARLINK-5414,PAYLOAD,2024-05-18 07:52:01,15.08843089,0.0001497,53.2162,113.1475,106.5651,253.5505,-1.2249e-05,-4.83e-06,0.0,0 STARLINK-5414,1 54809U 22175BD  24139.32779555 -.00000483  00000-0 -12249-4 0  9994,2 54809  53.2162 113.1475 0001497 106.5651 253.5505 15.08843089 80441,6917.871,95.437,540.772,538.7,0.0
54809.0,STARLINK-5414,PAYLOAD,2024-05-18 15:48:57,15.0884431,0.0001501,53.2164,111.6615,104.4791,255.6368,5.4763e-05,5.84e-06,0.0,0 STARLINK-5414,1 54809U 22175BD  24139.65899522  .00000584  00000-0  54763-4 0  9994,2 54809  53.2164 111.6615 0001501 104.4791 255.6368 15.08844310 80493,6917.867,95.437,540.771,538.694,0.0
54809.0,STARLINK-5414,PAYLOAD,2024-05-19 04:32:02,15.08846237,0.0001656,53.2166,109.2821,110.5628,249.5542,0.00020634,2.998e-05,0.0,0 STARLINK-5414,1 54809U 22175BD  24140.18891494  .00002998  00000-0  20634-3 0  9994,2 54809  53.2166 109.2821 0001656 110.5628 249.5542 15.08846237 78410,6917.861,95.437,540.872,538.581,0.0
54809.0,STARLINK-5414,PAYLOAD,2024-05-19 07:42:48,15.08847394,0.0001653,53.2167,108.6874,109.4478,250.6693,0.00024731,3.651e-05,0.0,0 STARLINK-5414,1 54809U 22175BD  24140.32139459  .00003651  00000-0  24731-3 0  9995,2 54809  53.2167 108.6874 0001653 109.4478 250.6693 15.08847394 80596,6917.858,95.437,540.866,538.579,0.0
54809.0,STARLINK-5414,PAYLOAD,2024-05-20 02:47:26,15.08838684,0.0001578,53.2161,105.1198,120.3033,239.8116,0.00015988,2.257e-05,0.0,0 STARLINK-5414,1 54809U 22175BD  24141.11628152  .00002257  00000-0  15988-3 0  9991,2 54809  53.2161 105.1198 0001578 120.3033 239.8116 15.08838684 78550,6917.884,95.438,540.841,538.658,0.0
54809.0,STARLINK-5414,PAYLOAD,2024-05-21 04:13:37,15.08838054,0.0001163,53.216,100.3665,109.4078,250.704,0.00020697,3.007e-05,0.0,0 STARLINK-5414,1 54809U 22175BD  24142.17612699  .00003007  00000-0  20697-3 0  9994,2 54809  53.2160 100.3665 0001163 109.4078 250.7040 15.08838054 78719,6917.886,95.438,540.556,538.947,0.0
54809.0,STARLINK-5414,PAYLOAD,2024-05-21 21:42:51,15.08842097,0.0001204,53.2167,97.0966,115.1597,244.952,0.00025425,3.761e-05,0.0,0 STARLINK-5414,1 54809U 22175BD  24142.90476746  .00003761  00000-0  25425-3 0  9997,2 54809  53.2167  97.0966 0001204 115.1597 244.9520 15.08842097 80980,6917.874,95.437,540.572,538.906,0.0
54809.0,STARLINK-5414,PAYLOAD,2024-05-22 02:29:01,15.08834769,0.0001426,53.2173,96.2046,134.3053,225.8056,7.3058e-05,8.75e-06,0.0,0 STARLINK-5414,1 54809U 22175BD  24143.10348915  .00000875  00000-0  73058-4 0  9995,2 54809  53.2173  96.2046 0001426 134.3053 225.8056 15.08834769 78855,6917.896,95.438,540.748,538.775,0.0
54809.0,STARLINK-5414,PAYLOAD,2024-05-22 05:39:47,15.08833572,0.0001193,53.2168,95.6089,126.5424,233.5678,3.5448e-05,2.76e-06,0.0,0 STARLINK-5414,1 54809U 22175BD  24143.23597026  .00000276  00000-0  35448-4 0  9994,2 54809  53.2168  95.6089 0001193 126.5424 233.5678 15.08833572 81036,6917.9,95.438,540.59,538.94,0.0
54809.0,STARLINK-5414,PAYLOAD,2024-05-23 03:55:11,15.08849672,9.65e-05,53.2171,91.4446,102.5076,257.6024,0.00026115,3.872e-05,0.0,0 STARLINK-5414,1 54809U 22175BD  24144.16332519  .00003872  00000-0  26115-3 0  9996,2 54809  53.2171  91.4446 0000965 102.5076 257.6024 15.08849672 79019,6917.851,95.437,540.383,539.048,0.0
54809.0,STARLINK-5414,PAYLOAD,2024-05-23 05:30:34,15.08852678,0.0001072,53.2169,91.1457,120.6681,239.4417,0.00032429,4.879e-05,0.0,0 STARLINK-5414,1 54809U 22175BD  24144.22956358  .00004879  00000-0  32429-3 0  9999,2 54809  53.2169  91.1457 0001072 120.6681 239.4417 15.08852678 81183,6917.842,95.437,540.448,538.965,0.0
54809.0,STARLINK-5414,PAYLOAD,2024-05-24 03:45:58,15.0884877,0.0001151,53.217,86.9852,66.5256,293.5857,0.00024947,3.686e-05,0.0,0 STARLINK-5414,1 54809U 22175BD  24145.15692534  .00003686  00000-0  24947-3 0  9996,2 54809  53.2170  86.9852 0001151  66.5256 293.5857 15.08848770 79162,6917.854,95.437,540.515,538.922,0.0
54809.0,STARLINK-5414,PAYLOAD,2024-05-24 05:21:21,15.08851677,0.0001025,53.2168,86.6884,83.1836,276.9273,0.00029988,4.489e-05,0.0,0 STARLINK-5414,1 54809U 22175BD  24145.22316356  .00004489  00000-0  29988-3 0  9991,2 54809  53.2168  86.6884 0001025  83.1836 276.9273 15.08851677 81339,6917.845,95.437,540.419,539.001,0.0
54809.0,STARLINK-5414,PAYLOAD,2024-05-25 03:36:45,15.08844445,0.0001022,53.2176,82.5228,95.868,264.2429,-2.1354e-05,-6.28e-06,0.0,0 STARLINK-5414,1 54809U 22175BD  24146.15052544 -.00000628  00000-0 -21354-4 0  9993,2 54809  53.2176  82.5228 0001022  95.8680 264.2429 15.08844445 79312,6917.867,95.437,540.439,539.025,0.0
54809.0,STARLINK-5414,PAYLOAD,2024-05-25 13:09:04,15.08837511,4.83e-05,53.217,80.7404,127.0989,233.0048,-9.7997e-05,-1.847e-05,0.0,0 STARLINK-5414,1 54809U 22175BD  24146.54796667 -.00001847  00000-0 -97997-4 0  9997,2 54809  53.2170  80.7404 0000483 127.0989 233.0048 15.08837511 81536,6917.888,95.438,540.087,539.419,0.0
54809.0,STARLINK-5414,PAYLOAD,2024-05-26 01:52:09,15.0883741,9.32e-05,53.2167,78.3588,111.1992,248.91,-4.4011e-05,-9.88e-06,0.0,0 STARLINK-5414,1 54809U 22175BD  24147.07789181 -.00000988  00000-0 -44011-4 0  9993,2 54809  53.2167  78.3588 0000932 111.1992 248.9100 15.08837410 79455,6917.888,95.438,540.398,539.109,0.0
54809.0,STARLINK-5414,PAYLOAD,2024-05-26 22:32:11,15.08830775,0.0001257,53.2161,74.4946,130.1812,229.929,0.00044872,6.859e-05,0.0,0 STARLINK-5414,1 54809U 22175BD  24147.93901638  .00006859  00000-0  44872-3 0  9996,2 54809  53.2161  74.4946 0001257 130.1812 229.9290 15.08830775 81748,6917.909,95.438,540.643,538.904,0.0
